[{"OBJECT_NAME":"ONEWEB-0161","OBJECT_ID":"2021-025M","EPOCH":"2025-11-02T03:49:59.356992","MEAN_MOTION":13.13471453,"ECCENTRICITY":0.00019386,"INCLINATION":87.9028,"RA_OF_ASC_NODE":5.3471,"ARG_OF_PERICENTER":94.2837,"MEAN_ANOMALY":265.8514,"EPHEMERIS_TYPE":0,"CLASSIFICATION_TYPE":"U","NORAD_CAT_ID":48053,"ELEMENT_SET_NO":999,"REV_AT_EPOCH":22370,"BSTAR":0.0010743305,"MEAN_MOTION_DOT":4.05e-6,"MEAN_MOTION_DDOT":0},{"OBJECT_NAME":"ONEWEB-0158","OBJECT_ID":"2021-025N","EPOCH":"2025-11-02T10:10:15.030048","MEAN_MOTION":13.13471599,"ECCENTRICITY":0.0001887,"INCLINATION":87.9033,"RA_OF_ASC_NODE":5.2765,"ARG_OF_PERICENTER":108.9386,"MEAN_ANOMALY":251.1948,"EPHEMERIS_TYPE":0,"CLASSIFICATION_TYPE":"U","NORAD_CAT_ID":48054,"ELEMENT_SET_NO":999,"REV_AT_EPOCH":22386,"BSTAR":-0.00084186,"MEAN_MOTION_DOT":-2.95e-6,"MEAN_MOTION_DDOT":0},{"OBJECT_NAME":"ONEWEB-0157","OBJECT_ID":"2021-025P","EPOCH":"2025-11-02T10:46:49.992672","MEAN_MOTION":13.13471779,"ECCENTRICITY":0.0002107,"INCLINATION":87.9034,"RA_OF_ASC_NODE":5.2782,"ARG_OF_PERICENTER":89.5105,"MEAN_ANOMALY":270.6265,"EPHEMERIS_TYPE":0,"CLASSIFICATION_TYPE":"U","NORAD_CAT_ID":48055,"ELEMENT_SET_NO":999,"REV_AT_EPOCH":22380,"BSTAR":0.00039172,"MEAN_MOTION_DOT":1.56e-6,"MEAN_MOTION_DDOT":0},{"OBJECT_NAME":"ONEWEB-0162","OBJECT_ID":"2021-025Q","EPOCH":"2025-11-02T10:12:30.184704","MEAN_MOTION":13.13469494,"ECCENTRICITY":0.0001757,"INCLINATION":87.9037,"RA_OF_ASC_NODE":5.2837,"ARG_OF_PERICENTER":94.8798,"MEAN_ANOMALY":265.2532,"EPHEMERIS_TYPE":0,"CLASSIFICATION_TYPE":"U","NORAD_CAT_ID":48056,"ELEMENT_SET_NO":999,"REV_AT_EPOCH":22377,"BSTAR":-0.00063024,"MEAN_MOTION_DOT":-2.17e-6,"MEAN_MOTION_DDOT":0},{"OBJECT_NAME":"ONEWEB-0155","OBJECT_ID":"2021-025R","EPOCH":"2025-11-02T04:53:22.202016","MEAN_MOTION":13.1346908,"ECCENTRICITY":0.00020306,"INCLINATION":87.9031,"RA_OF_ASC_NODE":5.3335,"ARG_OF_PERICENTER":98.7764,"MEAN_ANOMALY":261.3595,"EPHEMERIS_TYPE":0,"CLASSIFICATION_TYPE":"U","NORAD_CAT_ID":48057,"ELEMENT_SET_NO":999,"REV_AT_EPOCH":22388,"BSTAR":-0.00082084105,"MEAN_MOTION_DOT":-2.87e-6,"MEAN_MOTION_DDOT":0},{"OBJECT_NAME":"ONEWEB-0149","OBJECT_ID":"2021-025S","EPOCH":"2025-11-02T10:54:07.784928","MEAN_MOTION":13.13472154,"ECCENTRICITY":0.0001675,"INCLINATION":87.9031,"RA_OF_ASC_NODE":5.2779,"ARG_OF_PERICENTER":94.3971,"MEAN_ANOMALY":265.7349,"EPHEMERIS_TYPE":0,"CLASSIFICATION_TYPE":"U","NORAD_CAT_ID":48058,"ELEMENT_SET_NO":999,"REV_AT_EPOCH":22372,"BSTAR":0.00073251,"MEAN_MOTION_DOT":2.8e-6,"MEAN_MOTION_DDOT":0},{"OBJECT_NAME":"ONEWEB-0148","OBJECT_ID":"2021-025T","EPOCH":"2025-11-02T10:00:30.697344","MEAN_MOTION":13.13469918,"ECCENTRICITY":0.0001568,"INCLINATION":87.9031,"RA_OF_ASC_NODE":5.3077,"ARG_OF_PERICENTER":80.5614,"MEAN_ANOMALY":279.5693,"EPHEMERIS_TYPE":0,"CLASSIFICATION_TYPE":"U","NORAD_CAT_ID":48059,"ELEMENT_SET_NO":999,"REV_AT_EPOCH":22384,"BSTAR":-0.00053156,"MEAN_MOTION_DOT":-1.81e-6,"MEAN_MOTION_DDOT":0},{"OBJECT_NAME":"ONEWEB-0160","OBJECT_ID":"2021-025U","EPOCH":"2025-11-02T10:24:52.083360","MEAN_MOTION":13.13465995,"ECCENTRICITY":0.0001947,"INCLINATION":87.9026,"RA_OF_ASC_NODE":5.3015,"ARG_OF_PERICENTER":122.4438,"MEAN_ANOMALY":237.6879,"EPHEMERIS_TYPE":0,"CLASSIFICATION_TYPE":"U","NORAD_CAT_ID":48060,"ELEMENT_SET_NO":999,"REV_AT_EPOCH":22379,"BSTAR":0.00098993,"MEAN_MOTION_DOT":3.74e-6,"MEAN_MOTION_DDOT":0},{"OBJECT_NAME":"ONEWEB-0163","OBJECT_ID":"2021-025V","EPOCH":"2025-11-02T10:02:56.913792","MEAN_MOTION":13.13469729,"ECCENTRICITY":0.0002063,"INCLINATION":87.9037,"RA_OF_ASC_NODE":5.2879,"ARG_OF_PERICENTER":93.0759,"MEAN_ANOMALY":267.0606,"EPHEMERIS_TYPE":0,"CLASSIFICATION_TYPE":"U","NORAD_CAT_ID":48061,"ELEMENT_SET_NO":999,"REV_AT_EPOCH":22391,"BSTAR":-0.00059201,"MEAN_MOTION_DOT":-2.03e-6,"MEAN_MOTION_DDOT":0},{"OBJECT_NAME":"ONEWEB-0159","OBJECT_ID":"2021-025W","EPOCH":"2025-11-02T09:50:45.010752","MEAN_MOTION":13.13468313,"ECCENTRICITY":0.0001888,"INCLINATION":87.9043,"RA_OF_ASC_NODE":5.2729,"ARG_OF_PERICENTER":91.9931,"MEAN_ANOMALY":268.1414,"EPHEMERIS_TYPE":0,"CLASSIFICATION_TYPE":"U","NORAD_CAT_ID":48062,"ELEMENT_SET_NO":999,"REV_AT_EPOCH":22383,"BSTAR":3.7253e-5,"MEAN_MOTION_DOT":2.6e-7,"MEAN_MOTION_DDOT":0},{"OBJECT_NAME":"ONEWEB-0164","OBJECT_ID":"2021-025X","EPOCH":"2025-11-02T11:13:37.437024","MEAN_MOTION":13.1347244,"ECCENTRICITY":0.0001856,"INCLINATION":87.9031,"RA_OF_ASC_NODE":5.2692,"ARG_OF_PERICENTER":101.7035,"MEAN_ANOMALY":258.4302,"EPHEMERIS_TYPE":0,"CLASSIFICATION_TYPE":"U","NORAD_CAT_ID":48063,"ELEMENT_SET_NO":999,"REV_AT_EPOCH":22382,"BSTAR":0.00099638,"MEAN_MOTION_DOT":3.77e-6,"MEAN_MOTION_DDOT":0},{"OBJECT_NAME":"ONEWEB-0167","OBJECT_ID":"2021-025Y","EPOCH":"2025-11-02T10:04:10.092000","MEAN_MOTION":13.13469885,"ECCENTRICITY":0.0002599,"INCLINATION":87.9025,"RA_OF_ASC_NODE":5.3091,"ARG_OF_PERICENTER":97.9206,"MEAN_ANOMALY":262.2218,"EPHEMERIS_TYPE":0,"CLASSIFICATION_TYPE":"U","NORAD_CAT_ID":48064,"ELEMENT_SET_NO":999,"REV_AT_EPOCH":22380,"BSTAR":-0.00069991,"MEAN_MOTION_DOT":-2.43e-6,"MEAN_MOTION_DDOT":0},{"OBJECT_NAME":"ONEWEB-0166","OBJECT_ID":"2021-025Z","EPOCH":"2025-11-02T10:37:04.389888","MEAN_MOTION":13.13470164,"ECCENTRICITY":0.0001785,"INCLINATION":87.9032,"RA_OF_ASC_NODE":5.2579,"ARG_OF_PERICENTER":93.1351,"MEAN_ANOMALY":266.9983,"EPHEMERIS_TYPE":0,"CLASSIFICATION_TYPE":"U","NORAD_CAT_ID":48065,"ELEMENT_SET_NO":999,"REV_AT_EPOCH":22388,"BSTAR":-7.9186e-5,"MEAN_MOTION_DOT":-1.6e-7,"MEAN_MOTION_DDOT":0},{"OBJECT_NAME":"ONEWEB-0151","OBJECT_ID":"2021-025AA","EPOCH":"2025-11-02T10:39:29.679264","MEAN_MOTION":13.13473206,"ECCENTRICITY":0.0002015,"INCLINATION":87.9033,"RA_OF_ASC_NODE":5.2832,"ARG_OF_PERICENTER":100.0623,"MEAN_ANOMALY":260.0733,"EPHEMERIS_TYPE":0,"CLASSIFICATION_TYPE":"U","NORAD_CAT_ID":48066,"ELEMENT_SET_NO":999,"REV_AT_EPOCH":22382,"BSTAR":0.00017317,"MEAN_MOTION_DOT":7.6e-7,"MEAN_MOTION_DDOT":0},{"OBJECT_NAME":"ONEWEB-0170","OBJECT_ID":"2021-025AB","EPOCH":"2025-11-02T10:51:42.374592","MEAN_MOTION":13.13469585,"ECCENTRICITY":0.0002117,"INCLINATION":87.903,"RA_OF_ASC_NODE":5.2887,"ARG_OF_PERICENTER":111.1566,"MEAN_ANOMALY":248.979,"EPHEMERIS_TYPE":0,"CLASSIFICATION_TYPE":"U","NORAD_CAT_ID":48067,"ELEMENT_SET_NO":999,"REV_AT_EPOCH":22378,"BSTAR":0.00043937,"MEAN_MOTION_DOT":1.73e-6,"MEAN_MOTION_DDOT":0},{"OBJECT_NAME":"ONEWEB-0168","OBJECT_ID":"2021-025AC","EPOCH":"2025-11-02T10:29:45.794112","MEAN_MOTION":13.13469716,"ECCENTRICITY":0.0001964,"INCLINATION":87.9033,"RA_OF_ASC_NODE":5.2736,"ARG_OF_PERICENTER":93.4614,"MEAN_ANOMALY":266.6739,"EPHEMERIS_TYPE":0,"CLASSIFICATION_TYPE":"U","NORAD_CAT_ID":48068,"ELEMENT_SET_NO":999,"REV_AT_EPOCH":22379,"BSTAR":-0.00047759,"MEAN_MOTION_DOT":-1.62e-6,"MEAN_MOTION_DDOT":0},{"OBJECT_NAME":"ONEWEB-0173","OBJECT_ID":"2021-025AD","EPOCH":"2025-11-02T10:17:33.442656","MEAN_MOTION":13.1346895,"ECCENTRICITY":0.0002201,"INCLINATION":87.9033,"RA_OF_ASC_NODE":5.283,"ARG_OF_PERICENTER":92.3208,"MEAN_ANOMALY":267.8173,"EPHEMERIS_TYPE":0,"CLASSIFICATION_TYPE":"U","NORAD_CAT_ID":48069,"ELEMENT_SET_NO":999,"REV_AT_EPOCH":22403,"BSTAR":-0.00072172,"MEAN_MOTION_DOT":-2.51e-6,"MEAN_MOTION_DDOT":0}]
